GNOMES-1                
1 46266U 20059B   26068.53916665  .00004080  00000+0  33422-3 0  9991
2 46266  97.8057 278.7760 0005451 357.8604   2.2595 14.99848479300657
STARLINK-35688          
1 67019U 25293S   26068.49485089  .00004383  00000+0  37488-3 0  9993
2 67019  70.0001  95.1480 0003526 267.3625  92.7131 14.98331404 14855
