[{"OBJECT_NAME":"GNOMES-1","OBJECT_ID":"2020-059B","EPOCH":"2026-03-09T12:56:23.998560","MEAN_MOTION":14.99848479,"ECCENTRICITY":0.00054513,"INCLINATION":97.8057,"RA_OF_ASC_NODE":278.776,"ARG_OF_PERICENTER":357.8604,"MEAN_ANOMALY":2.2595,"EPHEMERIS_TYPE":0,"CLASSIFICATION_TYPE":"U","NORAD_CAT_ID":46266,"ELEMENT_SET_NO":999,"REV_AT_EPOCH":30065,"BSTAR":0.00033421547,"MEAN_MOTION_DOT":4.08e-5,"MEAN_MOTION_DDOT":0},{"OBJECT_NAME":"STARLINK-35688","OBJECT_ID":"2025-293S","EPOCH":"2026-03-09T11:52:35.116896","MEAN_MOTION":14.98331404,"ECCENTRICITY":0.00035264,"INCLINATION":70.0001,"RA_OF_ASC_NODE":95.148,"ARG_OF_PERICENTER":267.3625,"MEAN_ANOMALY":92.7131,"EPHEMERIS_TYPE":0,"CLASSIFICATION_TYPE":"U","NORAD_CAT_ID":67019,"ELEMENT_SET_NO":999,"REV_AT_EPOCH":1485,"BSTAR":0.00037488017,"MEAN_MOTION_DOT":4.383e-5,"MEAN_MOTION_DDOT":0}]
